KUIPER-00016            
1 63732U 25088J   25214.25002315  .00006730  00000+0  48609-3 0  9991
2 63732  51.8876   3.7198 0010604  67.1435 191.0962 15.05109143 14803
KUIPER-00018            
1 63733U 25088K   25214.25002315 -.00717946  00000+0 -31099-1 0  9995
2 63733  51.8766 358.5246 0006407  87.4042 278.2429 15.24211416 14884
KUIPER-00019            
1 63734U 25088L   25214.25002315 -.01338154  00000+0 -46425-1 0  9996
2 63734  51.8728 357.8474 0004447  94.1116 228.2614 15.32226922 14885
KUIPER-00020            
1 63735U 25088M   25214.25002315 -.00158780  00000+0 -76154-2 0  9994
2 63735  51.8838 359.3843 0007651  79.4392 183.4567 15.19068463 15077
KUIPER-00021            
1 63736U 25088N   25214.25002315  .00026745  00000+0  13490-2 0  9992
2 63736  51.8730 359.9675 0006585  89.1599 287.0674 15.16931107 14902
KUIPER-00023            
1 63737U 25088P   25214.25002315 -.00715991  00000+0 -39719-1 0  9994
2 63737  51.8830   0.7006 0010031  87.3133 298.5028 15.15718780 15199
KUIPER-00024            
1 63738U 25088Q   25212.68164598  .00020141  00000+0  52882-3 0  9994
2 63738  51.8733   4.5294 0001148 107.0274 253.0840 15.38608968 15131
KUIPER-00025            
1 63739U 25088R   25214.25002315  .00054779  00000+0  23562-2 0  9994
2 63739  51.8774 358.5853 0008464  68.3526 220.2574 15.22077617 15209
